start=new Date('2021-12-15T00:00:00.000Z').valueOf();
sats=[{"MEAN_MOTION_DDOT":"0.0000000000000","ELEMENT_SET_NO":"999","TLE_LINE2":"2 47996  53.0429 335.9946 0003321  22.3488 345.5048 15.31994737 42414","SITE":"AFETR","MEAN_ELEMENT_THEORY":"SGP4","REF_FRAME":"TEME","APOAPSIS":"472.138","SEMIMAJOR_AXIS":"6847.999","EPHEMERIS_TYPE":"0","CLASSIFICATION_TYPE":"U","OBJECT_TYPE":"PAYLOAD","ARG_OF_PERICENTER":"22.3488","OBJECT_NAME":"STARLINK-2260","MEAN_MOTION_DOT":"-0.00017881","PERIAPSIS":"467.589","RCS_SIZE":"LARGE","BSTAR":"-0.00056039000000","LAUNCH_DATE":"2021-03-24","INCLINATION":"53.0429","PERIOD":"93.995","COUNTRY_CODE":"US","EPOCH":"2021-12-14T14:00:01.000224","TIME_SYSTEM":"UTC","OBJECT_ID":"2021-024V","MEAN_MOTION":"15.31994737","RA_OF_ASC_NODE":"335.9946","TLE_LINE1":"1 47996U 21024V   21348.58334491 -.00017881  00000-0 -56039-3 0  9992","REV_AT_EPOCH":"4241","NORAD_CAT_ID":"47996","ECCENTRICITY":"0.00033210","FILE":"3239949","MEAN_ANOMALY":"345.5048","DECAY_DATE":null,"GP_ID":"191670470","CENTER_NAME":"EARTH"},{"TLE_LINE1":"1 47997U 21024W   21348.56536674  .00001221  00000-0  10082-3 0  9995","RA_OF_ASC_NODE":"52.4471","MEAN_MOTION":"15.06401865","OBJECT_ID":"2021-024W","EPOCH":"2021-12-14T13:34:07.686336","COUNTRY_CODE":"US","TIME_SYSTEM":"UTC","INCLINATION":"53.0562","PERIOD":"95.592","CENTER_NAME":"EARTH","GP_ID":"191694674","FILE":"3240057","MEAN_ANOMALY":"274.2268","DECAY_DATE":null,"REV_AT_EPOCH":"4187","NORAD_CAT_ID":"47997","ECCENTRICITY":"0.00011860","OBJECT_TYPE":"PAYLOAD","SEMIMAJOR_AXIS":"6925.343","EPHEMERIS_TYPE":"0","CLASSIFICATION_TYPE":"U","MEAN_ELEMENT_THEORY":"SGP4","REF_FRAME":"TEME","APOAPSIS":"548.029","MEAN_MOTION_DDOT":"0.0000000000000","ELEMENT_SET_NO":"999","SITE":"AFETR","TLE_LINE2":"2 47997  53.0562  52.4471 0001186  85.8857 274.2268 15.06401865 41876","LAUNCH_DATE":"2021-03-24","RCS_SIZE":"LARGE","BSTAR":"0.00010082000000","ARG_OF_PERICENTER":"85.8857","OBJECT_NAME":"STARLINK-2266","MEAN_MOTION_DOT":"0.00001221","PERIAPSIS":"546.386"},{"LAUNCH_DATE":"2021-03-24","OBJECT_NAME":"STARLINK-2296","ARG_OF_PERICENTER":"63.9662","MEAN_MOTION_DOT":"-0.00000732","PERIAPSIS":"546.236","BSTAR":"-0.00003024200000","RCS_SIZE":"LARGE","EPHEMERIS_TYPE":"0","SEMIMAJOR_AXIS":"6925.362","CLASSIFICATION_TYPE":"U","OBJECT_TYPE":"PAYLOAD","MEAN_MOTION_DDOT":"0.0000000000000","SITE":"AFETR","TLE_LINE2":"2 47998  53.0550  27.5006 0001431  63.9662 296.1474 15.06395645 42168","ELEMENT_SET_NO":"999","MEAN_ELEMENT_THEORY":"SGP4","REF_FRAME":"TEME","APOAPSIS":"548.218","MEAN_ANOMALY":"296.1474","FILE":"3240057","DECAY_DATE":null,"CENTER_NAME":"EARTH","GP_ID":"191694924","NORAD_CAT_ID":"47998","REV_AT_EPOCH":"4216","ECCENTRICITY":"0.00014310","RA_OF_ASC_NODE":"27.5006","MEAN_MOTION":"15.06395645","OBJECT_ID":"2021-024X","TLE_LINE1":"1 47998U 21024X   21348.55014959 -.00000732  00000-0 -30242-4 0  9991","INCLINATION":"53.0550","PERIOD":"95.592","TIME_SYSTEM":"UTC","COUNTRY_CODE":"US","EPOCH":"2021-12-14T13:12:12.924576"},{"INCLINATION":"53.0562","PERIOD":"95.592","TIME_SYSTEM":"UTC","COUNTRY_CODE":"US","EPOCH":"2021-12-14T14:00:01.000224","RA_OF_ASC_NODE":"357.3527","OBJECT_ID":"2021-024Y","MEAN_MOTION":"15.06401626","TLE_LINE1":"1 47999U 21024Y   21348.58334491 -.00007697  00000-0 -49833-3 0  9993","NORAD_CAT_ID":"47999","REV_AT_EPOCH":"359","ECCENTRICITY":"0.00023940","MEAN_ANOMALY":"278.7303","FILE":"3240057","DECAY_DATE":null,"GP_ID":"191695176","CENTER_NAME":"EARTH","MEAN_MOTION_DDOT":"0.0000000000000","SITE":"AFETR","TLE_LINE2":"2 47999  53.0562 357.3527 0002394  46.4988 278.7303 15.06401626  3598","ELEMENT_SET_NO":"999","MEAN_ELEMENT_THEORY":"SGP4","REF_FRAME":"TEME","APOAPSIS":"548.867","SEMIMAJOR_AXIS":"6925.344","EPHEMERIS_TYPE":"0","CLASSIFICATION_TYPE":"U","OBJECT_TYPE":"PAYLOAD","OBJECT_NAME":"STARLINK-2218","ARG_OF_PERICENTER":"46.4988","MEAN_MOTION_DOT":"-0.00007697","PERIAPSIS":"545.551","BSTAR":"-0.00049833000000","RCS_SIZE":"LARGE","LAUNCH_DATE":"2021-03-24"},{"LAUNCH_DATE":"2021-03-24","RCS_SIZE":"LARGE","BSTAR":"-0.00143840000000","ARG_OF_PERICENTER":"44.9311","OBJECT_NAME":"STARLINK-2270","MEAN_MOTION_DOT":"-0.00021648","PERIAPSIS":"545.821","OBJECT_TYPE":"PAYLOAD","SEMIMAJOR_AXIS":"6925.319","EPHEMERIS_TYPE":"0","CLASSIFICATION_TYPE":"U","REF_FRAME":"TEME","MEAN_ELEMENT_THEORY":"SGP4","APOAPSIS":"548.547","MEAN_MOTION_DDOT":"0.0000000000000","ELEMENT_SET_NO":"999","TLE_LINE2":"2 48000  53.0530 342.3456 0001968  44.9311  42.8151 15.06409551 42332","SITE":"AFETR","GP_ID":"191672651","CENTER_NAME":"EARTH","FILE":"3240047","MEAN_ANOMALY":"42.8151","DECAY_DATE":null,"REV_AT_EPOCH":"4233","NORAD_CAT_ID":"48000","ECCENTRICITY":"0.00019680","TLE_LINE1":"1 48000U 21024Z   21348.58334491 -.00021648  00000-0 -14384-2 0  9991","RA_OF_ASC_NODE":"342.3456","MEAN_MOTION":"15.06409551","OBJECT_ID":"2021-024Z","COUNTRY_CODE":"US","EPOCH":"2021-12-14T14:00:01.000224","TIME_SYSTEM":"UTC","INCLINATION":"53.0530","PERIOD":"95.592"},{"ELEMENT_SET_NO":"999","TLE_LINE2":"2 48002  53.0551   2.3482 0001862  50.4066 307.3421 15.06391043  3591","SITE":"AFETR","MEAN_MOTION_DDOT":"0.0000000000000","APOAPSIS":"548.531","REF_FRAME":"TEME","MEAN_ELEMENT_THEORY":"SGP4","EPHEMERIS_TYPE":"0","SEMIMAJOR_AXIS":"6925.376","CLASSIFICATION_TYPE":"U","OBJECT_TYPE":"PAYLOAD","MEAN_MOTION_DOT":"0.00004866","PERIAPSIS":"545.952","ARG_OF_PERICENTER":"50.4066","OBJECT_NAME":"STARLINK-2265","RCS_SIZE":"LARGE","BSTAR":"0.00034541000000","LAUNCH_DATE":"2021-03-24","INCLINATION":"53.0551","PERIOD":"95.593","COUNTRY_CODE":"US","EPOCH":"2021-12-14T14:00:01.000224","TIME_SYSTEM":"UTC","OBJECT_ID":"2021-024AB","MEAN_MOTION":"15.06391043","RA_OF_ASC_NODE":"2.3482","TLE_LINE1":"1 48002U 21024AB  21348.58334491  .00004866  00000-0  34541-3 0  9992","ECCENTRICITY":"0.00018620","REV_AT_EPOCH":"359","NORAD_CAT_ID":"48002","DECAY_DATE":null,"FILE":"3240057","MEAN_ANOMALY":"307.3421","CENTER_NAME":"EARTH","GP_ID":"191694175"},{"LAUNCH_DATE":"2021-03-24","BSTAR":"-0.00003106100000","RCS_SIZE":"LARGE","PERIAPSIS":"546.323","MEAN_MOTION_DOT":"-0.00000744","OBJECT_NAME":"STARLINK-2263","ARG_OF_PERICENTER":"79.1608","OBJECT_TYPE":"PAYLOAD","SEMIMAJOR_AXIS":"6925.378","CLASSIFICATION_TYPE":"U","EPHEMERIS_TYPE":"0","APOAPSIS":"548.163","MEAN_ELEMENT_THEORY":"SGP4","REF_FRAME":"TEME","TLE_LINE2":"2 48003  53.0564  76.6703 0001329  79.1608 280.9530 15.06390362 41013","SITE":"AFETR","ELEMENT_SET_NO":"999","MEAN_MOTION_DDOT":"0.0000000000000","GP_ID":"191700372","CENTER_NAME":"EARTH","DECAY_DATE":null,"MEAN_ANOMALY":"280.9530","FILE":"3240202","ECCENTRICITY":"0.00013290","NORAD_CAT_ID":"48003","REV_AT_EPOCH":"4101","TLE_LINE1":"1 48003U 21024AC  21348.73446656 -.00000744  00000-0 -31061-4 0  9995","RA_OF_ASC_NODE":"76.6703","OBJECT_ID":"2021-024AC","MEAN_MOTION":"15.06390362","TIME_SYSTEM":"UTC","EPOCH":"2021-12-14T17:37:37.910784","COUNTRY_CODE":"US","INCLINATION":"53.0564","PERIOD":"95.593"},{"OBJECT_ID":"2021-024AD","RA_OF_ASC_NODE":"322.2755","MEAN_MOTION":"15.90793167","TLE_LINE1":"1 48004U 21024AD  21348.91667824  .00201285  25987-4  64074-3 0  9993","PERIOD":"90.521","INCLINATION":"53.0412","TIME_SYSTEM":"UTC","COUNTRY_CODE":"US","EPOCH":"2021-12-14T22:00:00.999936","DECAY_DATE":null,"MEAN_ANOMALY":"165.8377","FILE":"3240138","GP_ID":"191699276","CENTER_NAME":"EARTH","ECCENTRICITY":"0.00012330","NORAD_CAT_ID":"48004","REV_AT_EPOCH":"4263","CLASSIFICATION_TYPE":"U","SEMIMAJOR_AXIS":"6678.199","EPHEMERIS_TYPE":"0","OBJECT_TYPE":"PAYLOAD","TLE_LINE2":"2 48004  53.0412 322.2755 0001233  58.3365 165.8377 15.90793167 42638","SITE":"AFETR","ELEMENT_SET_NO":"999","MEAN_MOTION_DDOT":"0.0000259870000","APOAPSIS":"300.888","MEAN_ELEMENT_THEORY":"SGP4","REF_FRAME":"TEME","LAUNCH_DATE":"2021-03-24","MEAN_MOTION_DOT":"0.00201285","PERIAPSIS":"299.241","OBJECT_NAME":"STARLINK-2261","ARG_OF_PERICENTER":"58.3365","BSTAR":"0.00064074000000","RCS_SIZE":"LARGE"},{"OBJECT_NAME":"STARLINK-2254","ARG_OF_PERICENTER":"133.0915","PERIAPSIS":"546.593","MEAN_MOTION_DOT":"0.00001135","BSTAR":"0.00009507100000","RCS_SIZE":"LARGE","LAUNCH_DATE":"2021-03-24","MEAN_MOTION_DDOT":"0.0000000000000","SITE":"AFETR","TLE_LINE2":"2 48005  53.0569  47.3893 0000870 133.0915 227.0147 15.06405942 41428","ELEMENT_SET_NO":"999","MEAN_ELEMENT_THEORY":"SGP4","REF_FRAME":"TEME","APOAPSIS":"547.798","CLASSIFICATION_TYPE":"U","SEMIMAJOR_AXIS":"6925.330","EPHEMERIS_TYPE":"0","OBJECT_TYPE":"PAYLOAD","NORAD_CAT_ID":"48005","REV_AT_EPOCH":"4142","ECCENTRICITY":"0.00008700","MEAN_ANOMALY":"227.0147","FILE":"3240138","DECAY_DATE":null,"GP_ID":"191699138","CENTER_NAME":"EARTH","PERIOD":"95.592","INCLINATION":"53.0569","TIME_SYSTEM":"UTC","EPOCH":"2021-12-14T13:53:22.289280","COUNTRY_CODE":"US","OBJECT_ID":"2021-024AE","MEAN_MOTION":"15.06405942","RA_OF_ASC_NODE":"47.3893","TLE_LINE1":"1 48005U 21024AE  21348.57873020  .00001135  00000-0  95071-4 0  9992"},{"TIME_SYSTEM":"UTC","COUNTRY_CODE":"US","EPOCH":"2021-12-14T22:30:00.862272","PERIOD":"90.212","INCLINATION":"53.0397","TLE_LINE1":"1 48007U 21024AG  21348.93750998  .00636668  18269-3  15040-2 0  9992","OBJECT_ID":"2021-024AG","MEAN_MOTION":"15.96244748","RA_OF_ASC_NODE":"322.0948","NORAD_CAT_ID":"48007","REV_AT_EPOCH":"4263","ECCENTRICITY":"0.00026020","GP_ID":"191699824","CENTER_NAME":"EARTH","MEAN_ANOMALY":"260.4925","FILE":"3240194","DECAY_DATE":null,"MEAN_ELEMENT_THEORY":"SGP4","REF_FRAME":"TEME","APOAPSIS":"286.584","MEAN_MOTION_DDOT":"0.0001826900000","TLE_LINE2":"2 48007  53.0397 322.0948 0002602 121.9122 260.4925 15.96244748 42637","SITE":"AFETR","ELEMENT_SET_NO":"999","OBJECT_TYPE":"PAYLOAD","SEMIMAJOR_AXIS":"6662.985","CLASSIFICATION_TYPE":"U","EPHEMERIS_TYPE":"0","BSTAR":"0.00150400000000","RCS_SIZE":"LARGE","OBJECT_NAME":"STARLINK-2259","ARG_OF_PERICENTER":"121.9122","MEAN_MOTION_DOT":"0.00636668","PERIAPSIS":"283.117","LAUNCH_DATE":"2021-03-24"}];
